TEVEL2-6                
1 63215U 25052F   26068.64958975  .00021046  00000+0  70909-3 0  9996
2 63215  97.4016 325.0381 0004769  95.6604 264.5181 15.30760889 54861
STARLINK-35644          
1 66402U 25257Y   26068.64005810  .00011317  00000+0  39372-3 0  9994
2 66402  53.1577 217.4070 0000990  86.7928 273.3186 15.30192860 19710
